OBJECT_NAME,OBJECT_ID,EPOCH,MEAN_MOTION,ECCENTRICITY,INCLINATION,RA_OF_ASC_NODE,ARG_OF_PERICENTER,MEAN_ANOMALY,EPHEMERIS_TYPE,CLASSIFICATION_TYPE,NORAD_CAT_ID,ELEMENT_SET_NO,REV_AT_EPOCH,BSTAR,MEAN_MOTION_DOT,MEAN_MOTION_DDOT
EUTELSAT HOTBIRD 13C,2008-065A,2026-07-14T18:18:40.298688,1.00270848,.00033504,3.0190,78.8637,36.7469,41.3675,0,U,33459,999,4762,0,-.293E-5,0
EXPRESS-AM44,2009-007A,2026-07-14T23:37:49.155744,1.00271040,.00036493,3.5317,78.0496,30.0537,168.1633,0,U,33595,999,5256,0,-.101E-5,0
NSS-9,2009-008A,2026-07-14T17:42:36.256896,1.00271757,.0001848,1.3308,82.3825,20.8410,278.0795,0,U,33749,999,6379,0,.62E-6,0
TELSTAR 11N,2009-009A,2026-07-14T18:22:17.452128,1.00269088,.00022936,0.0394,259.7018,210.1451,60.7721,0,U,34111,999,4652,0,-.259E-5,0
WGS F2 (USA 204),2009-017A,2026-07-14T20:51:38.561184,1.00270568,.00002538,0.0174,35.5972,215.9041,51.6180,0,U,34713,999,4589,0,.6E-6,0
SES-7 (PROTOSTAR 2),2009-027A,2026-07-14T07:05:12.439104,1.00268610,.00005559,0.0298,64.9521,168.5938,273.1405,0,U,34941,999,6290,0,-.351E-5,0
MEASAT-3A,2009-032A,2026-07-14T02:11:55.993056,1.00269864,.00025681,0.0359,317.7686,143.9350,23.2173,0,U,35362,999,830,0,-.117E-5,0
GOES 14,2009-033A,2026-07-14T19:08:42.216576,1.00098247,.00018995,1.7587,82.6967,40.3899,222.0628,0,U,35491,999,686,0,-.367E-5,0
FM-5,2009-034A,2026-07-13T21:36:30.896640,1.00271245,.00007579,0.0457,259.5714,86.9227,183.2440,0,U,35493,999,4691,0,-.205E-5,0
TERRESTAR-1,2009-035A,2026-07-13T12:29:38.800608,1.00270674,.00026182,5.1989,48.7738,55.2029,263.8324,0,U,35496,999,6239,0,-.64E-6,0
ASIASAT 5,2009-042A,2026-07-14T19:50:13.430976,1.00267100,.0001485,0.0270,72.5676,34.5725,223.6658,0,U,35696,999,6198,0,0,0
JCSAT-12 (JCSAT-RA),2009-044A,2026-07-14T19:10:42.025728,1.00272189,.00007695,0.0574,265.6684,290.5856,156.1255,0,U,35755,999,6188,0,-.336E-5,0
OPTUS D3,2009-044B,2026-07-12T22:48:29.541024,1.00268614,.00029239,0.8917,268.2973,204.5770,316.2131,0,U,35756,999,6182,0,-.147E-5,0
NIMIQ 5,2009-050A,2026-07-14T22:11:07.215648,1.00270847,.00025376,0.0480,240.8803,228.2212,83.7521,0,U,35873,999,6162,0,-.266E-5,0
AMAZONAS 2,2009-054A,2026-07-14T18:12:25.898112,1.00270015,.00031448,1.8847,82.6940,32.4258,18.6025,0,U,35942,999,6146,0,-.269E-5,0
COMSATBW-1,2009-054B,2026-07-14T22:27:21.693600,1.00269771,.00026389,0.0634,176.2381,298.3257,218.0826,0,U,35943,999,6158,0,.16E-6,0
NSS-12,2009-058A,2026-07-14T20:51:38.553408,1.00269089,.00047955,0.0939,269.4663,169.3493,223.8043,0,U,36032,999,6119,0,.63E-6,0
THOR 6,2009-058B,2026-07-14T18:32:47.094720,1.00269799,.0001594,0.0165,75.1886,40.9723,93.8287,0,U,36033,999,6128,0,0,0
INTELSAT 14 (IS-14),2009-064A,2026-07-14T18:20:10.156416,1.00268717,.00021826,0.0211,305.3122,177.7556,39.5898,0,U,36097,999,6088,0,-.282E-5,0
EUTELSAT 36B,2009-065A,2026-07-14T22:53:55.262976,1.00273748,.00057412,0.5591,81.3250,33.5786,211.8854,0,U,36101,999,6098,0,.103E-5,0
INTELSAT 15 (IS-15),2009-067A,2026-07-14T20:08:38.827392,1.00268678,.00022153,0.0149,327.1032,152.0148,200.8735,0,U,36106,999,4150,0,-.193E-5,0
WGS F3 (USA 211),2009-068A,2026-07-14T00:53:36.575232,1.00270731,.00005904,0.3001,85.6351,101.4654,348.2198,0,U,36108,999,4686,0,.58E-6,0
DIRECTV 12,2009-075A,2026-07-14T14:38:21.706080,1.00271908,.00003427,0.0060,146.6311,81.1342,181.5619,0,U,36131,999,4682,0,-.111E-5,0
BEIDOU-2 G1,2010-001A,2026-07-14T18:41:08.233728,1.00272175,.00018824,4.3558,60.3041,286.8650,6.2094,0,U,36287,999,6044,0,-.291E-5,0
SDO,2010-005A,2026-07-14T06:42:26.599392,1.00277077,.00019596,34.7062,85.9305,51.0470,153.5206,0,U,36395,999,6033,0,-.106E-5,0
INTELSAT 16 (IS-16),2010-006A,2026-07-14T19:33:29.316960,1.00270086,.00023156,0.0093,43.7248,94.0748,12.0317,0,U,36397,999,5993,0,-.253E-5,0
EWS-G2 (GOES 15),2010-008A,2026-07-14T21:00:10.768032,1.00268500,.00052148,1.3515,82.4632,53.7621,174.8648,0,U,36411,999,5991,0,.13E-6,0
ECHOSTAR 14,2010-010A,2026-07-14T16:16:22.009728,1.00271131,.00018677,0.0448,250.5437,204.8870,322.2760,0,U,36499,999,4682,0,-.8E-7,0
SES-1,2010-016A,2026-07-14T14:38:51.658368,1.00271621,.00023713,0.0376,290.8571,180.9225,299.3966,0,U,36516,999,5930,0,-.122E-5,0
ASTRA 3B,2010-021A,2026-07-14T22:49:17.479200,1.00270047,.00044233,1.5388,83.2193,20.9072,194.4988,0,U,36581,999,5914,0,.127E-5,0
COMSATBW-2,2010-021B,2026-07-14T13:28:44.006016,1.00273631,.0002393,0.0518,117.8274,15.5284,14.4770,0,U,36582,999,5923,0,.81E-6,0
BEIDOU-2 G3,2010-024A,2026-07-14T18:21:30.325248,1.00268413,.00069265,4.5782,61.3818,359.5493,226.6310,0,U,36590,999,5904,0,-.145E-5,0
