EUTELSAT HOTBIRD 13C    
1 33459U 08065A   26195.76296642 -.00000293  00000+0  00000+0 0  9991
2 33459   3.0190  78.8637 0003350  36.7469  41.3675  1.00270848 47629
EXPRESS-AM44            
1 33595U 09007A   26195.98459671 -.00000101  00000+0  00000+0 0  9994
2 33595   3.5317  78.0496 0003649  30.0537 168.1633  1.00271040 52561
NSS-9                   
1 33749U 09008A   26195.73791964  .00000062  00000+0  00000+0 0  9998
2 33749   1.3308  82.3825 0001848  20.8410 278.0795  1.00271757 63790
TELSTAR 11N             
1 34111U 09009A   26195.76547977 -.00000259  00000+0  00000+0 0  9998
2 34111   0.0394 259.7018 0002293 210.1451  60.7721  1.00269088 46524
WGS F2 (USA 204)        
1 34713U 09017A   26195.86919631  .00000060  00000+0  00000+0 0  9995
2 34713   0.0174  35.5972 0000253 215.9041  51.6180  1.00270568 45891
SES-7 (PROTOSTAR 2)     
1 34941U 09027A   26195.29528286 -.00000351  00000+0  00000+0 0  9992
2 34941   0.0298  64.9521 0000555 168.5938 273.1405  1.00268610 62907
MEASAT-3A               
1 35362U 09032A   26195.09162029 -.00000117  00000+0  00000+0 0  9993
2 35362   0.0359 317.7686 0002568 143.9350  23.2173  1.00269864  8307
GOES 14                 
1 35491U 09033A   26195.79771084 -.00000367  00000+0  00000+0 0  9998
2 35491   1.7587  82.6967 0001899  40.3899 222.0628  1.00098247  6863
FM-5                    
1 35493U 09034A   26194.90035760 -.00000205  00000+0  00000+0 0  9998
2 35493   0.0457 259.5714 0000757  86.9227 183.2440  1.00271245 46912
TERRESTAR-1             
1 35496U 09035A   26194.52058797 -.00000064  00000+0  00000+0 0  9998
2 35496   5.1989  48.7738 0002618  55.2029 263.8324  1.00270674 62393
ASIASAT 5               
1 35696U 09042A   26195.82654434  .00000000  00000+0  00000+0 0  9991
2 35696   0.0270  72.5676 0001485  34.5725 223.6658  1.00267100 61980
JCSAT-12 (JCSAT-RA)     
1 35755U 09044A   26195.79909752 -.00000336  00000+0  00000+0 0  9994
2 35755   0.0574 265.6684 0000769 290.5856 156.1255  1.00272189 61885
OPTUS D3                
1 35756U 09044B   26193.95034191 -.00000147  00000+0  00000+0 0  9997
2 35756   0.8917 268.2973 0002923 204.5770 316.2131  1.00268614 61823
NIMIQ 5                 
1 35873U 09050A   26195.92438907 -.00000266  00000+0  00000+0 0  9998
2 35873   0.0480 240.8803 0002537 228.2212  83.7521  1.00270847 61621
AMAZONAS 2              
1 35942U 09054A   26195.75863308 -.00000269  00000+0  00000+0 0  9990
2 35942   1.8847  82.6940 0003144  32.4258  18.6025  1.00270015 61463
COMSATBW-1              
1 35943U 09054B   26195.93566775  .00000016  00000+0  00000+0 0  9998
2 35943   0.0634 176.2381 0002638 298.3257 218.0826  1.00269771 61582
NSS-12                  
1 36032U 09058A   26195.86919622  .00000063  00000+0  00000+0 0  9999
2 36032   0.0939 269.4663 0004795 169.3493 223.8043  1.00269089 61197
THOR 6                  
1 36033U 09058B   26195.77276730  .00000000  00000+0  00000+0 0  9997
2 36033   0.0165  75.1886 0001594  40.9723  93.8287  1.00269799 61285
INTELSAT 14 (IS-14)     
1 36097U 09064A   26195.76400644 -.00000282  00000+0  00000+0 0  9999
2 36097   0.0211 305.3122 0002182 177.7556  39.5898  1.00268717 60884
EUTELSAT 36B            
1 36101U 09065A   26195.95411184  .00000103  00000+0  00000+0 0  9999
2 36101   0.5591  81.3250 0005741  33.5786 211.8854  1.00273748 60985
INTELSAT 15 (IS-15)     
1 36106U 09067A   26195.83933828 -.00000193  00000+0  00000+0 0  9997
2 36106   0.0149 327.1032 0002215 152.0148 200.8735  1.00268678 41504
WGS F3 (USA 211)        
1 36108U 09068A   26195.03722888  .00000058  00000+0  00000+0 0  9993
2 36108   0.3001  85.6351 0000590 101.4654 348.2198  1.00270731 46867
DIRECTV 12              
1 36131U 09075A   26195.60997345 -.00000111  00000+0  00000+0 0  9993
2 36131   0.0060 146.6311 0000342  81.1342 181.5619  1.00271908 46821
BEIDOU-2 G1             
1 36287U 10001A   26195.77856752 -.00000291  00000+0  00000+0 0  9999
2 36287   4.3558  60.3041 0001882 286.8650   6.2094  1.00272175 60441
SDO                     
1 36395U 10005A   26195.27947453 -.00000106  00000+0  00000+0 0  9992
2 36395  34.7062  85.9305 0001959  51.0470 153.5206  1.00277077 60336
INTELSAT 16 (IS-16)     
1 36397U 10006A   26195.81492265 -.00000253  00000+0  00000+0 0  9994
2 36397   0.0093  43.7248 0002315  94.0748  12.0317  1.00270086 59937
EWS-G2 (GOES 15)        
1 36411U 10008A   26195.87512463  .00000013  00000+0  00000+0 0  9995
2 36411   1.3515  82.4632 0005214  53.7621 174.8648  1.00268500 59917
ECHOSTAR 14             
1 36499U 10010A   26195.67803252 -.00000008  00000+0  00000+0 0  9996
2 36499   0.0448 250.5437 0001867 204.8870 322.2760  1.00271131 46824
SES-1                   
1 36516U 10016A   26195.61032012 -.00000122  00000+0  00000+0 0  9991
2 36516   0.0376 290.8571 0002371 180.9225 299.3966  1.00271621 59302
ASTRA 3B                
1 36581U 10021A   26195.95089675  .00000127  00000+0  00000+0 0  9997
2 36581   1.5388  83.2193 0004423  20.9072 194.4988  1.00270047 59142
COMSATBW-2              
1 36582U 10021B   26195.56162044  .00000081  00000+0  00000+0 0  9996
2 36582   0.0518 117.8274 0002393  15.5284  14.4770  1.00273631 59237
BEIDOU-2 G3             
1 36590U 10024A   26195.76493432 -.00000145  00000+0  00000+0 0  9990
2 36590   4.5782  61.3818 0006926 359.5493 226.6310  1.00268413 59042
